{
  "type": "FeatureCollection",
  "features": [
    {
      "type": "Feature",
      "properties": {
        "norad_id": 30350,
        "name": "FENGYUN 1C DEB",
        "group": "fengyun-1c-debris",
        "lat": -15.338580989970449,
        "lon": 165.1660166447421,
        "alt_km": 816.9385470956531,
        "timestamp": "2025-12-10T04:57:29.894165+00:00",
        "meta_object_name": "FENGYUN 1C DEB",
        "meta_object_id": "1999-025ABM",
        "meta_epoch": "2025-12-09T18:40:54.242976",
        "meta_mean_motion": 13.82805469,
        "meta_eccentricity": 0.0219392,
        "meta_inclination": 98.0926,
        "meta_ra_of_asc_node": 162.5609,
        "meta_arg_of_pericenter": 316.901,
        "meta_mean_anomaly": 56.1256,
        "meta_ephemeris_type": 0,
        "meta_classification_type": "U",
        "meta_norad_cat_id": 30350,
        "meta_element_set_no": 999,
        "meta_rev_at_epoch": 94941,
        "meta_bstar": 0.0011228,
        "meta_mean_motion_dot": 1.434e-05,
        "meta_mean_motion_ddot": 0,
        "tle_line1": "1 30350U 99025ABM 25343.77840559  .00001434  00000+0  11228-2 0  9995",
        "tle_line2": "2 30350  98.0926 162.5609 0219392 316.9010  56.1256 13.82805469949410"
      },
      "geometry": {
        "type": "Point",
        "coordinates": [
          165.1660166447421,
          -15.338580989970449
        ]
      }
    },
    {
      "type": "Feature",
      "properties": {
        "norad_id": 30352,
        "name": "FENGYUN 1C DEB",
        "group": "fengyun-1c-debris",
        "lat": 29.478672312461185,
        "lon": 0.3574106728046743,
        "alt_km": 857.019198881906,
        "timestamp": "2025-12-10T04:57:29.894175+00:00",
        "meta_object_name": "FENGYUN 1C DEB",
        "meta_object_id": "1999-025ABP",
        "meta_epoch": "2025-12-09T19:24:24.488064",
        "meta_mean_motion": 14.07581684,
        "meta_eccentricity": 0.0027915,
        "meta_inclination": 98.7648,
        "meta_ra_of_asc_node": 4.9744,
        "meta_arg_of_pericenter": 327.7243,
        "meta_mean_anomaly": 206.3921,
        "meta_ephemeris_type": 0,
        "meta_classification_type": "U",
        "meta_norad_cat_id": 30352,
        "meta_element_set_no": 999,
        "meta_rev_at_epoch": 96869,
        "meta_bstar": 0.00041027,
        "meta_mean_motion_dot": 6.52e-06,
        "meta_mean_motion_ddot": 0,
        "tle_line1": "1 30352U 99025ABP 25343.80861676  .00000652  00000+0  41027-3 0  9996",
        "tle_line2": "2 30352  98.7648   4.9744 0027915 327.7243 206.3921 14.07581684968692"
      },
      "geometry": {
        "type": "Point",
        "coordinates": [
          0.3574106728046743,
          29.478672312461185
        ]
      }
    },
    {
      "type": "Feature",
      "properties": {
        "norad_id": 30355,
        "name": "FENGYUN 1C DEB",
        "group": "fengyun-1c-debris",
        "lat": -78.4381012464637,
        "lon": 36.259002655502144,
        "alt_km": 806.844411164343,
        "timestamp": "2025-12-10T04:57:29.894187+00:00",
        "meta_object_name": "FENGYUN 1C DEB",
        "meta_object_id": "1999-025ABS",
        "meta_epoch": "2025-12-08T22:58:11.033760",
        "meta_mean_motion": 14.18804015,
        "meta_eccentricity": 0.0053278,
        "meta_inclination": 98.5885,
        "meta_ra_of_asc_node": 347.4258,
        "meta_arg_of_pericenter": 320.544,
        "meta_mean_anomaly": 59.0299,
        "meta_ephemeris_type": 0,
        "meta_classification_type": "U",
        "meta_norad_cat_id": 30355,
        "meta_element_set_no": 999,
        "meta_rev_at_epoch": 97297,
        "meta_bstar": 0.00090894,
        "meta_mean_motion_dot": 1.874e-05,
        "meta_mean_motion_ddot": 0,
        "tle_line1": "1 30355U 99025ABS 25342.95707215  .00001874  00000+0  90894-3 0  9995",
        "tle_line2": "2 30355  98.5885 347.4258 0053278 320.5440  59.0299 14.18804015972977"
      },
      "geometry": {
        "type": "Point",
        "coordinates": [
          36.259002655502144,
          -78.4381012464637
        ]
      }
    },
    {
      "type": "Feature",
      "properties": {
        "norad_id": 30356,
        "name": "FENGYUN 1C DEB",
        "group": "fengyun-1c-debris",
        "lat": 48.07580005417409,
        "lon": 169.31906278551992,
        "alt_km": 881.1103775879374,
        "timestamp": "2025-12-10T04:57:29.894197+00:00",
        "meta_object_name": "FENGYUN 1C DEB",
        "meta_object_id": "1999-025ABT",
        "meta_epoch": "2025-12-08T22:01:42.608928",
        "meta_mean_motion": 14.13018951,
        "meta_eccentricity": 0.0052127,
        "meta_inclination": 98.6811,
        "meta_ra_of_asc_node": 338.2739,
        "meta_arg_of_pericenter": 299.9543,
        "meta_mean_anomaly": 119.3086,
        "meta_ephemeris_type": 0,
        "meta_classification_type": "U",
        "meta_norad_cat_id": 30356,
        "meta_element_set_no": 999,
        "meta_rev_at_epoch": 96967,
        "meta_bstar": 0.0010167,
        "meta_mean_motion_dot": 1.878e-05,
        "meta_mean_motion_ddot": 0,
        "tle_line1": "1 30356U 99025ABT 25342.91785427  .00001878  00000+0  10167-2 0  9991",
        "tle_line2": "2 30356  98.6811 338.2739 0052127 299.9543 119.3086 14.13018951969673"
      },
      "geometry": {
        "type": "Point",
        "coordinates": [
          169.31906278551992,
          48.07580005417409
        ]
      }
    },
    {
      "type": "Feature",
      "properties": {
        "norad_id": 30357,
        "name": "FENGYUN 1C DEB",
        "group": "fengyun-1c-debris",
        "lat": 28.428680837818618,
        "lon": 6.714558803783434,
        "alt_km": 852.0212775951159,
        "timestamp": "2025-12-10T04:57:29.894207+00:00",
        "meta_object_name": "FENGYUN 1C DEB",
        "meta_object_id": "1999-025ABU",
        "meta_epoch": "2025-12-09T01:44:32.716896",
        "meta_mean_motion": 14.05261102,
        "meta_eccentricity": 0.00490105,
        "meta_inclination": 98.8066,
        "meta_ra_of_asc_node": 10.4274,
        "meta_arg_of_pericenter": 340.5988,
        "meta_mean_anomaly": 74.2246,
        "meta_ephemeris_type": 0,
        "meta_classification_type": "U",
        "meta_norad_cat_id": 30357,
        "meta_element_set_no": 999,
        "meta_rev_at_epoch": 96755,
        "meta_bstar": 0.00017605676,
        "meta_mean_motion_dot": 2.45e-06,
        "meta_mean_motion_ddot": 0,
        "tle_line1": "1 30357U 99025ABU 25343.07260089  .00000245  00000+0  17606-3 0  9995",
        "tle_line2": "2 30357  98.8066  10.4274 0049010 340.5988  74.2246 14.05261102967555"
      },
      "geometry": {
        "type": "Point",
        "coordinates": [
          6.714558803783434,
          28.428680837818618
        ]
      }
    },
    {
      "type": "Feature",
      "properties": {
        "norad_id": 30358,
        "name": "FENGYUN 1C DEB",
        "group": "fengyun-1c-debris",
        "lat": -76.42905508164651,
        "lon": -148.02330787066415,
        "alt_km": 813.2557678600897,
        "timestamp": "2025-12-10T04:57:29.894217+00:00",
        "meta_object_name": "FENGYUN 1C DEB",
        "meta_object_id": "1999-025ABV",
        "meta_epoch": "2025-12-09T12:43:21.123840",
        "meta_mean_motion": 14.20629974,
        "meta_eccentricity": 0.00828345,
        "meta_inclination": 98.5543,
        "meta_ra_of_asc_node": 172.7468,
        "meta_arg_of_pericenter": 208.9036,
        "meta_mean_anomaly": 212.9777,
        "meta_ephemeris_type": 0,
        "meta_classification_type": "U",
        "meta_norad_cat_id": 30358,
        "meta_element_set_no": 999,
        "meta_rev_at_epoch": 96872,
        "meta_bstar": 0.0028445413,
        "meta_mean_motion_dot": 6.3e-05,
        "meta_mean_motion_ddot": 0,
        "tle_line1": "1 30358U 99025ABV 25343.53010560  .00006300  00000+0  28445-2 0  9994",
        "tle_line2": "2 30358  98.5543 172.7468 0082834 208.9036 212.9777 14.20629974968724"
      },
      "geometry": {
        "type": "Point",
        "coordinates": [
          -148.02330787066415,
          -76.42905508164651
        ]
      }
    },
    {
      "type": "Feature",
      "properties": {
        "norad_id": 30359,
        "name": "FENGYUN 1C DEB",
        "group": "fengyun-1c-debris",
        "lat": -2.3878866352082055,
        "lon": -11.23129723702342,
        "alt_km": 1020.7034136942675,
        "timestamp": "2025-12-10T04:57:29.894227+00:00",
        "meta_object_name": "FENGYUN 1C DEB",
        "meta_object_id": "1999-025ABW",
        "meta_epoch": "2025-12-09T10:51:27.973440",
        "meta_mean_motion": 13.93967483,
        "meta_eccentricity": 0.01452007,
        "meta_inclination": 101.6273,
        "meta_ra_of_asc_node": 168.3141,
        "meta_arg_of_pericenter": 350.6908,
        "meta_mean_anomaly": 9.1558,
        "meta_ephemeris_type": 0,
        "meta_classification_type": "U",
        "meta_norad_cat_id": 30359,
        "meta_element_set_no": 999,
        "meta_rev_at_epoch": 95023,
        "meta_bstar": 0.003545301,
        "meta_mean_motion_dot": 5.053e-05,
        "meta_mean_motion_ddot": 0,
        "tle_line1": "1 30359U 99025ABW 25343.45240710  .00005053  00000+0  35453-2 0  9999",
        "tle_line2": "2 30359 101.6273 168.3141 0145200 350.6908   9.1558 13.93967483950239"
      },
      "geometry": {
        "type": "Point",
        "coordinates": [
          -11.23129723702342,
          -2.3878866352082055
        ]
      }
    }
  ]
}